start=new Date('2023-03-30T00:00:00.000Z').valueOf();
sats=[{"SITE":"AFWTR","EPHEMERIS_TYPE":"0","MEAN_MOTION":"15.76672091","PERIAPSIS":"339.336","INCLINATION":"53.1844","PERIOD":"91.332","TLE_LINE1":"1 51817U 22017BB  23088.91981752  .00005767  00000-0  39298-4 0  9997","CLASSIFICATION_TYPE":"U","BSTAR":"0.00003929800000","TLE_LINE2":"2 51817  53.1844 324.2702 0000809  98.1273 261.9840 15.76672091 63931","GP_ID":"229139724","MEAN_MOTION_DOT":"0.00005767","NORAD_CAT_ID":"51817","TIME_SYSTEM":"UTC","EPOCH":"2023-03-29T22:04:32.233728","RA_OF_ASC_NODE":"324.2702","OBJECT_ID":"2022-017BB","MEAN_ELEMENT_THEORY":"SGP4","RCS_SIZE":"LARGE","FILE":"3874790","ECCENTRICITY":"0.00008090","DECAY_DATE":null,"COUNTRY_CODE":"US","MEAN_ANOMALY":"261.9840","CENTER_NAME":"EARTH","ARG_OF_PERICENTER":"98.1273","REF_FRAME":"TEME","SEMIMAJOR_AXIS":"6718.014","OBJECT_NAME":"STARLINK-3596","REV_AT_EPOCH":"6393","MEAN_MOTION_DDOT":"0.0000000000000","LAUNCH_DATE":"2022-02-25","APOAPSIS":"340.423","ELEMENT_SET_NO":"999","OBJECT_TYPE":"PAYLOAD"},{"MEAN_ANOMALY":"185.9664","CENTER_NAME":"EARTH","DECAY_DATE":null,"COUNTRY_CODE":"US","ECCENTRICITY":"0.00005200","MEAN_ELEMENT_THEORY":"SGP4","RA_OF_ASC_NODE":"168.4607","OBJECT_ID":"2022-022A","RCS_SIZE":"LARGE","FILE":"3874691","APOAPSIS":"540.111","LAUNCH_DATE":"2022-03-03","ELEMENT_SET_NO":"999","OBJECT_TYPE":"PAYLOAD","MEAN_MOTION_DDOT":"0.0000000000000","OBJECT_NAME":"STARLINK-3542","REV_AT_EPOCH":"6060","ARG_OF_PERICENTER":"174.1335","REF_FRAME":"TEME","SEMIMAJOR_AXIS":"6917.887","TLE_LINE1":"1 51852U 22022A   23088.91520072  .00005600  00000-0  36967-3 0  9991","PERIOD":"95.438","EPHEMERIS_TYPE":"0","MEAN_MOTION":"15.08837992","PERIAPSIS":"539.392","INCLINATION":"53.2160","SITE":"AFETR","TIME_SYSTEM":"UTC","EPOCH":"2023-03-29T21:57:53.342208","TLE_LINE2":"2 51852  53.2160 168.4607 0000520 174.1335 185.9664 15.08837992 60606","MEAN_MOTION_DOT":"0.00005600","GP_ID":"229113930","BSTAR":"0.00036967000000","NORAD_CAT_ID":"51852","CLASSIFICATION_TYPE":"U"},{"GP_ID":"229113938","TLE_LINE2":"2 51853  53.2157 168.4484 0001715  91.3026 268.8163 15.08847257 60554","MEAN_MOTION_DOT":"0.00016649","BSTAR":"0.00106150000000","NORAD_CAT_ID":"51853","TIME_SYSTEM":"UTC","EPOCH":"2023-03-29T22:04:34.133664","CLASSIFICATION_TYPE":"U","PERIOD":"95.437","TLE_LINE1":"1 51853U 22022B   23088.91983951  .00016649  00000-0  10615-2 0  9997","SITE":"AFETR","EPHEMERIS_TYPE":"0","MEAN_MOTION":"15.08847257","PERIAPSIS":"538.537","INCLINATION":"53.2157","MEAN_MOTION_DDOT":"0.0000000000000","LAUNCH_DATE":"2022-03-03","APOAPSIS":"540.910","ELEMENT_SET_NO":"999","OBJECT_TYPE":"PAYLOAD","ARG_OF_PERICENTER":"91.3026","REF_FRAME":"TEME","SEMIMAJOR_AXIS":"6917.858","REV_AT_EPOCH":"6055","OBJECT_NAME":"STARLINK-3539","DECAY_DATE":null,"COUNTRY_CODE":"US","MEAN_ANOMALY":"268.8163","CENTER_NAME":"EARTH","RA_OF_ASC_NODE":"168.4484","MEAN_ELEMENT_THEORY":"SGP4","OBJECT_ID":"2022-022B","RCS_SIZE":"LARGE","FILE":"3874691","ECCENTRICITY":"0.00017150"},{"ECCENTRICITY":"0.00009960","RCS_SIZE":"LARGE","FILE":"3874727","RA_OF_ASC_NODE":"168.4752","OBJECT_ID":"2022-022C","MEAN_ELEMENT_THEORY":"SGP4","CENTER_NAME":"EARTH","MEAN_ANOMALY":"179.7765","COUNTRY_CODE":"US","DECAY_DATE":null,"REV_AT_EPOCH":"6061","OBJECT_NAME":"STARLINK-3541","SEMIMAJOR_AXIS":"6917.904","REF_FRAME":"TEME","ARG_OF_PERICENTER":"180.3226","ELEMENT_SET_NO":"999","OBJECT_TYPE":"PAYLOAD","LAUNCH_DATE":"2022-03-03","APOAPSIS":"540.458","MEAN_MOTION_DDOT":"0.0000000000000","PERIAPSIS":"539.080","INCLINATION":"53.2174","EPHEMERIS_TYPE":"0","MEAN_MOTION":"15.08832244","SITE":"AFETR","TLE_LINE1":"1 51854U 22022C   23088.91151421 -.00006277  00000-0 -37675-3 0  9991","PERIOD":"95.438","CLASSIFICATION_TYPE":"U","TIME_SYSTEM":"UTC","EPOCH":"2023-03-29T21:52:34.827744","NORAD_CAT_ID":"51854","MEAN_MOTION_DOT":"-0.00006277","TLE_LINE2":"2 51854  53.2174 168.4752 0000996 180.3226 179.7765 15.08832244 60618","GP_ID":"229114729","BSTAR":"-0.00037675000000"},{"INCLINATION":"53.2169","PERIAPSIS":"536.905","MEAN_MOTION":"15.08846600","EPHEMERIS_TYPE":"0","SITE":"AFETR","TLE_LINE1":"1 51855U 22022D   23088.70543885  .00001039  00000-0  83400-4 0  9995","PERIOD":"95.437","CLASSIFICATION_TYPE":"U","EPOCH":"2023-03-29T16:55:49.916640","TIME_SYSTEM":"UTC","NORAD_CAT_ID":"51855","BSTAR":"0.00008340000000","TLE_LINE2":"2 51855  53.2169 169.4158 0004077 330.3903  29.6858 15.08846600 60535","GP_ID":"229138981","MEAN_MOTION_DOT":"0.00001039","ECCENTRICITY":"0.00040770","FILE":"3874790","RCS_SIZE":"LARGE","RA_OF_ASC_NODE":"169.4158","MEAN_ELEMENT_THEORY":"SGP4","OBJECT_ID":"2022-022D","CENTER_NAME":"EARTH","MEAN_ANOMALY":"29.6858","COUNTRY_CODE":"US","DECAY_DATE":null,"REV_AT_EPOCH":"6053","OBJECT_NAME":"STARLINK-3545","SEMIMAJOR_AXIS":"6917.860","REF_FRAME":"TEME","ARG_OF_PERICENTER":"330.3903","OBJECT_TYPE":"PAYLOAD","ELEMENT_SET_NO":"999","APOAPSIS":"542.546","LAUNCH_DATE":"2022-03-03","MEAN_MOTION_DDOT":"0.0000000000000"},{"TLE_LINE1":"1 51856U 22022E   23088.90783970 -.00012943  00000-0 -79671-3 0  9991","PERIOD":"95.438","EPHEMERIS_TYPE":"0","MEAN_MOTION":"15.08834514","PERIAPSIS":"538.930","INCLINATION":"53.2153","SITE":"AFETR","TIME_SYSTEM":"UTC","EPOCH":"2023-03-29T21:47:17.350080","TLE_LINE2":"2 51856  53.2153 168.4905 0001203  94.2100 265.9030 15.08834514 60641","GP_ID":"229138731","MEAN_MOTION_DOT":"-0.00012943","BSTAR":"-0.00079671000000","NORAD_CAT_ID":"51856","CLASSIFICATION_TYPE":"U","MEAN_ANOMALY":"265.9030","CENTER_NAME":"EARTH","DECAY_DATE":null,"COUNTRY_CODE":"US","ECCENTRICITY":"0.00012030","OBJECT_ID":"2022-022E","RA_OF_ASC_NODE":"168.4905","MEAN_ELEMENT_THEORY":"SGP4","RCS_SIZE":"LARGE","FILE":"3874790","APOAPSIS":"540.594","LAUNCH_DATE":"2022-03-03","ELEMENT_SET_NO":"999","OBJECT_TYPE":"PAYLOAD","MEAN_MOTION_DDOT":"0.0000000000000","OBJECT_NAME":"STARLINK-3568","REV_AT_EPOCH":"6064","REF_FRAME":"TEME","ARG_OF_PERICENTER":"94.2100","SEMIMAJOR_AXIS":"6917.897"},{"CLASSIFICATION_TYPE":"U","MEAN_MOTION_DOT":"0.00036348","TLE_LINE2":"2 51857  53.2144 169.4352 0001391  55.8754 304.2370 15.08945117 60584","GP_ID":"229139483","BSTAR":"0.00228360000000","NORAD_CAT_ID":"51857","TIME_SYSTEM":"UTC","EPOCH":"2023-03-29T16:45:12.211200","SITE":"AFETR","EPHEMERIS_TYPE":"0","MEAN_MOTION":"15.08945117","PERIAPSIS":"538.462","INCLINATION":"53.2144","PERIOD":"95.431","TLE_LINE1":"1 51857U 22022F   23088.69805800  .00036348  00000-0  22836-2 0  9998","ARG_OF_PERICENTER":"55.8754","REF_FRAME":"TEME","SEMIMAJOR_AXIS":"6917.559","REV_AT_EPOCH":"6058","OBJECT_NAME":"STARLINK-3571","MEAN_MOTION_DDOT":"0.0000000000000","APOAPSIS":"540.386","LAUNCH_DATE":"2022-03-03","ELEMENT_SET_NO":"999","OBJECT_TYPE":"PAYLOAD","RA_OF_ASC_NODE":"169.4352","MEAN_ELEMENT_THEORY":"SGP4","OBJECT_ID":"2022-022F","RCS_SIZE":"LARGE","FILE":"3874790","ECCENTRICITY":"0.00013910","DECAY_DATE":null,"COUNTRY_CODE":"US","MEAN_ANOMALY":"304.2370","CENTER_NAME":"EARTH"},{"PERIOD":"95.436","TLE_LINE1":"1 51858U 22022G   23088.70175784  .00027069  00000-0  17113-2 0  9994","SITE":"AFETR","EPHEMERIS_TYPE":"0","MEAN_MOTION":"15.08861986","PERIAPSIS":"538.810","INCLINATION":"53.2146","GP_ID":"229140228","TLE_LINE2":"2 51858  53.2146 169.4156 0001255  99.0305 261.0829 15.08861986 60580","MEAN_MOTION_DOT":"0.00027069","BSTAR":"0.00171130000000","NORAD_CAT_ID":"51858","TIME_SYSTEM":"UTC","EPOCH":"2023-03-29T16:50:31.877376","CLASSIFICATION_TYPE":"U","DECAY_DATE":null,"COUNTRY_CODE":"US","MEAN_ANOMALY":"261.0829","CENTER_NAME":"EARTH","RA_OF_ASC_NODE":"169.4156","MEAN_ELEMENT_THEORY":"SGP4","OBJECT_ID":"2022-022G","RCS_SIZE":"LARGE","FILE":"3874790","ECCENTRICITY":"0.00012550","MEAN_MOTION_DDOT":"0.0000000000000","APOAPSIS":"540.546","LAUNCH_DATE":"2022-03-03","ELEMENT_SET_NO":"999","OBJECT_TYPE":"PAYLOAD","REF_FRAME":"TEME","ARG_OF_PERICENTER":"99.0305","SEMIMAJOR_AXIS":"6917.813","REV_AT_EPOCH":"6058","OBJECT_NAME":"STARLINK-3563"},{"INCLINATION":"53.2160","PERIAPSIS":"538.620","MEAN_MOTION":"15.08853723","EPHEMERIS_TYPE":"0","SITE":"AFETR","TLE_LINE1":"1 51859U 22022H   23088.51963816 -.00000094  00000-0  12213-4 0  9993","PERIOD":"95.437","CLASSIFICATION_TYPE":"U","EPOCH":"2023-03-29T12:28:16.737024","TIME_SYSTEM":"UTC","NORAD_CAT_ID":"51859","TLE_LINE2":"2 51859  53.2160 160.2484 0001566  81.5061 278.6109 15.08853723 60697","GP_ID":"229105706","MEAN_MOTION_DOT":"-0.00000094","BSTAR":"0.00001221300000","ECCENTRICITY":"0.00015660","FILE":"3874492","RCS_SIZE":"LARGE","RA_OF_ASC_NODE":"160.2484","MEAN_ELEMENT_THEORY":"SGP4","OBJECT_ID":"2022-022H","CENTER_NAME":"EARTH","MEAN_ANOMALY":"278.6109","COUNTRY_CODE":"US","DECAY_DATE":null,"REV_AT_EPOCH":"6069","OBJECT_NAME":"STARLINK-3560","SEMIMAJOR_AXIS":"6917.838","ARG_OF_PERICENTER":"81.5061","REF_FRAME":"TEME","OBJECT_TYPE":"PAYLOAD","ELEMENT_SET_NO":"999","APOAPSIS":"540.787","LAUNCH_DATE":"2022-03-03","MEAN_MOTION_DDOT":"0.0000000000000"},{"CENTER_NAME":"EARTH","MEAN_ANOMALY":"289.5106","COUNTRY_CODE":"US","DECAY_DATE":null,"ECCENTRICITY":"0.00014550","FILE":"3874691","RCS_SIZE":"LARGE","RA_OF_ASC_NODE":"158.4244","MEAN_ELEMENT_THEORY":"SGP4","OBJECT_ID":"2022-022J","OBJECT_TYPE":"PAYLOAD","ELEMENT_SET_NO":"999","APOAPSIS":"540.678","LAUNCH_DATE":"2022-03-03","MEAN_MOTION_DDOT":"0.0000000000000","REV_AT_EPOCH":"6071","OBJECT_NAME":"STARLINK-3559","SEMIMAJOR_AXIS":"6917.807","REF_FRAME":"TEME","ARG_OF_PERICENTER":"70.6043","TLE_LINE1":"1 51860U 22022J   23088.92348174  .00029002  00000-0  18316-2 0  9991","PERIOD":"95.436","INCLINATION":"53.2148","PERIAPSIS":"538.665","MEAN_MOTION":"15.08864063","EPHEMERIS_TYPE":"0","SITE":"AFETR","EPOCH":"2023-03-29T22:09:48.822336","TIME_SYSTEM":"UTC","NORAD_CAT_ID":"51860","MEAN_MOTION_DOT":"0.00029002","TLE_LINE2":"2 51860  53.2148 158.4244 0001455  70.6043 289.5106 15.08864063 60714","GP_ID":"229113719","BSTAR":"0.00183160000000","CLASSIFICATION_TYPE":"U"}];
